STARLINK-36040          
1 66614U 25270AC  25363.55716278  .00103847  00000+0  24553-2 0  9992
2 66614  43.0008  95.3949 0000571 262.3280  97.7512 15.40752354  6783
STARLINK-35988          
1 66615U 25270AD  25362.66299513  .00054813  00000+0  13087-2 0  9990
2 66615  43.0045 100.7283 0003076 271.2342  88.8162 15.40727022  6649
STARLINK-35391          
1 66616U 25270AE  25362.96922576  .00100806  00000+0  23866-2 0  9996
2 66616  42.9969  98.7237 0001310 292.1783  67.8935 15.40726498  6964
STARLINK-35940          
1 66617U 25271A   25363.58788801  .00063872  00000+0  15888-2 0  9994
2 66617  53.1579 107.6970 0001400  89.4326 270.6839 15.39708761  6801
STARLINK-35970          
1 66618U 25271B   25363.46229264  .00091750  00000+0  22715-2 0  9998
2 66618  53.1599 107.6179 0000770  60.6266 299.4815 15.39683199  6796
STARLINK-35951          
1 66619U 25271C   25363.61103105  .00102990  00000+0  25506-2 0  9991
2 66619  53.1604 107.1263 0001261  83.7085 276.4063 15.39613868  6813
STARLINK-35936          
1 66620U 25271D   25363.49048530  .00089171  00000+0  22134-2 0  9998
2 66620  53.1606 107.7985 0000692  70.3227 289.7853 15.39618078  6790
STARLINK-35847          
1 66621U 25271E   25363.83335647  .00053759  00000+0  13469-2 0  9999
2 66621  53.1581 105.8145 0001021  72.3066 211.4141 15.39564634  6004
STARLINK-35950          
1 66622U 25271F   25363.50441360  .00058888  00000+0  14720-2 0  9993
2 66622  53.1578 107.8700 0001365 100.9302 259.1856 15.39596494  6799
STARLINK-35920          
1 66623U 25271G   25363.44878922  .00092442  00000+0  22869-2 0  9992
2 66623  53.1605 108.2492 0001621  67.3817 292.7359 15.39701750  6789
STARLINK-35927          
1 66624U 25271H   25363.73621150  .00056971  00000+0  14236-2 0  9990
2 66624  53.1594 106.4857 0001270 124.7744 235.3380 15.39620821  6831
STARLINK-35929          
1 66625U 25271J   25363.56004882  .00102402  00000+0  25287-2 0  9998
2 66625  53.1607 107.5194 0000968  17.9717 342.1322 15.39705106  6809
