CCSDS_OMM_VERS = 2.0
CREATION_DATE  = 
ORIGINATOR     = 

OBJECT_NAME    = STARLINK-36040
OBJECT_ID      = 2025-270AC
CENTER_NAME    = EARTH
REF_FRAME      = TEME
TIME_SYSTEM    = UTC
MEAN_ELEMENT_THEORY = SGP/SGP4

EPOCH          = 2025-12-29T13:22:18.864192
MEAN_MOTION    = 15.40752354
ECCENTRICITY   = .0000571
INCLINATION    = 43.0008
RA_OF_ASC_NODE = 95.3949
ARG_OF_PERICENTER = 262.3280
MEAN_ANOMALY   = 97.7512

EPHEMERIS_TYPE = 0
CLASSIFICATION_TYPE = U
NORAD_CAT_ID   = 66614
ELEMENT_SET_NO = 999
REV_AT_EPOCH   = 678
BSTAR          = .24553E-2
MEAN_MOTION_DOT = .103847E-2
MEAN_MOTION_DDOT = 0

CCSDS_OMM_VERS = 2.0
CREATION_DATE  = 
ORIGINATOR     = 

OBJECT_NAME    = STARLINK-35988
OBJECT_ID      = 2025-270AD
CENTER_NAME    = EARTH
REF_FRAME      = TEME
TIME_SYSTEM    = UTC
MEAN_ELEMENT_THEORY = SGP/SGP4

EPOCH          = 2025-12-28T15:54:42.779232
MEAN_MOTION    = 15.40727022
ECCENTRICITY   = .00030763
INCLINATION    = 43.0045
RA_OF_ASC_NODE = 100.7283
ARG_OF_PERICENTER = 271.2342
MEAN_ANOMALY   = 88.8162

EPHEMERIS_TYPE = 0
CLASSIFICATION_TYPE = U
NORAD_CAT_ID   = 66615
ELEMENT_SET_NO = 999
REV_AT_EPOCH   = 664
BSTAR          = .13087313E-2
MEAN_MOTION_DOT = .54813E-3
MEAN_MOTION_DDOT = 0

CCSDS_OMM_VERS = 2.0
CREATION_DATE  = 
ORIGINATOR     = 

OBJECT_NAME    = STARLINK-35391
OBJECT_ID      = 2025-270AE
CENTER_NAME    = EARTH
REF_FRAME      = TEME
TIME_SYSTEM    = UTC
MEAN_ELEMENT_THEORY = SGP/SGP4

EPOCH          = 2025-12-28T23:15:41.105664
MEAN_MOTION    = 15.40726498
ECCENTRICITY   = .000131
INCLINATION    = 42.9969
RA_OF_ASC_NODE = 98.7237
ARG_OF_PERICENTER = 292.1783
MEAN_ANOMALY   = 67.8935

EPHEMERIS_TYPE = 0
CLASSIFICATION_TYPE = U
NORAD_CAT_ID   = 66616
ELEMENT_SET_NO = 999
REV_AT_EPOCH   = 696
BSTAR          = .23866009E-2
MEAN_MOTION_DOT = .100806E-2
MEAN_MOTION_DDOT = 0

CCSDS_OMM_VERS = 2.0
CREATION_DATE  = 
ORIGINATOR     = 

OBJECT_NAME    = STARLINK-35940
OBJECT_ID      = 2025-271A
CENTER_NAME    = EARTH
REF_FRAME      = TEME
TIME_SYSTEM    = UTC
MEAN_ELEMENT_THEORY = SGP/SGP4

EPOCH          = 2025-12-29T14:06:33.524064
MEAN_MOTION    = 15.39708761
ECCENTRICITY   = .00014
INCLINATION    = 53.1579
RA_OF_ASC_NODE = 107.6970
ARG_OF_PERICENTER = 89.4326
MEAN_ANOMALY   = 270.6839

EPHEMERIS_TYPE = 0
CLASSIFICATION_TYPE = U
NORAD_CAT_ID   = 66617
ELEMENT_SET_NO = 999
REV_AT_EPOCH   = 680
BSTAR          = .15888E-2
MEAN_MOTION_DOT = .63872E-3
MEAN_MOTION_DDOT = 0

CCSDS_OMM_VERS = 2.0
CREATION_DATE  = 
ORIGINATOR     = 

OBJECT_NAME    = STARLINK-35970
OBJECT_ID      = 2025-271B
CENTER_NAME    = EARTH
REF_FRAME      = TEME
TIME_SYSTEM    = UTC
MEAN_ELEMENT_THEORY = SGP/SGP4

EPOCH          = 2025-12-29T11:05:42.084096
MEAN_MOTION    = 15.39683199
ECCENTRICITY   = .00007707
INCLINATION    = 53.1599
RA_OF_ASC_NODE = 107.6179
ARG_OF_PERICENTER = 60.6266
MEAN_ANOMALY   = 299.4815

EPHEMERIS_TYPE = 0
CLASSIFICATION_TYPE = U
NORAD_CAT_ID   = 66618
ELEMENT_SET_NO = 999
REV_AT_EPOCH   = 679
BSTAR          = .22715227E-2
MEAN_MOTION_DOT = .9175E-3
MEAN_MOTION_DDOT = 0

CCSDS_OMM_VERS = 2.0
CREATION_DATE  = 
ORIGINATOR     = 

OBJECT_NAME    = STARLINK-35951
OBJECT_ID      = 2025-271C
CENTER_NAME    = EARTH
REF_FRAME      = TEME
TIME_SYSTEM    = UTC
MEAN_ELEMENT_THEORY = SGP/SGP4

EPOCH          = 2025-12-29T14:39:53.082720
MEAN_MOTION    = 15.39613868
ECCENTRICITY   = .0001261
INCLINATION    = 53.1604
RA_OF_ASC_NODE = 107.1263
ARG_OF_PERICENTER = 83.7085
MEAN_ANOMALY   = 276.4063

EPHEMERIS_TYPE = 0
CLASSIFICATION_TYPE = U
NORAD_CAT_ID   = 66619
ELEMENT_SET_NO = 999
REV_AT_EPOCH   = 681
BSTAR          = .25506E-2
MEAN_MOTION_DOT = .10299E-2
MEAN_MOTION_DDOT = 0

CCSDS_OMM_VERS = 2.0
CREATION_DATE  = 
ORIGINATOR     = 

OBJECT_NAME    = STARLINK-35936
OBJECT_ID      = 2025-271D
CENTER_NAME    = EARTH
REF_FRAME      = TEME
TIME_SYSTEM    = UTC
MEAN_ELEMENT_THEORY = SGP/SGP4

EPOCH          = 2025-12-29T11:46:17.929920
MEAN_MOTION    = 15.39618078
ECCENTRICITY   = .00006925
INCLINATION    = 53.1606
RA_OF_ASC_NODE = 107.7985
ARG_OF_PERICENTER = 70.3227
MEAN_ANOMALY   = 289.7853

EPHEMERIS_TYPE = 0
CLASSIFICATION_TYPE = U
NORAD_CAT_ID   = 66620
ELEMENT_SET_NO = 999
REV_AT_EPOCH   = 679
BSTAR          = .22134181E-2
MEAN_MOTION_DOT = .89171E-3
MEAN_MOTION_DDOT = 0

CCSDS_OMM_VERS = 2.0
CREATION_DATE  = 
ORIGINATOR     = 

OBJECT_NAME    = STARLINK-35847
OBJECT_ID      = 2025-271E
CENTER_NAME    = EARTH
REF_FRAME      = TEME
TIME_SYSTEM    = UTC
MEAN_ELEMENT_THEORY = SGP/SGP4

EPOCH          = 2025-12-29T20:00:01.999008
MEAN_MOTION    = 15.39564634
ECCENTRICITY   = .0001021
INCLINATION    = 53.1581
RA_OF_ASC_NODE = 105.8145
ARG_OF_PERICENTER = 72.3066
MEAN_ANOMALY   = 211.4141

EPHEMERIS_TYPE = 0
CLASSIFICATION_TYPE = U
NORAD_CAT_ID   = 66621
ELEMENT_SET_NO = 999
REV_AT_EPOCH   = 600
BSTAR          = .13469E-2
MEAN_MOTION_DOT = .53759E-3
MEAN_MOTION_DDOT = 0

CCSDS_OMM_VERS = 2.0
CREATION_DATE  = 
ORIGINATOR     = 

OBJECT_NAME    = STARLINK-35950
OBJECT_ID      = 2025-271F
CENTER_NAME    = EARTH
REF_FRAME      = TEME
TIME_SYSTEM    = UTC
MEAN_ELEMENT_THEORY = SGP/SGP4

EPOCH          = 2025-12-29T12:06:21.335040
MEAN_MOTION    = 15.39596494
ECCENTRICITY   = .0001365
INCLINATION    = 53.1578
RA_OF_ASC_NODE = 107.8700
ARG_OF_PERICENTER = 100.9302
MEAN_ANOMALY   = 259.1856

EPHEMERIS_TYPE = 0
CLASSIFICATION_TYPE = U
NORAD_CAT_ID   = 66622
ELEMENT_SET_NO = 999
REV_AT_EPOCH   = 679
BSTAR          = .1472E-2
MEAN_MOTION_DOT = .58888E-3
MEAN_MOTION_DDOT = 0

CCSDS_OMM_VERS = 2.0
CREATION_DATE  = 
ORIGINATOR     = 

OBJECT_NAME    = STARLINK-35920
OBJECT_ID      = 2025-271G
CENTER_NAME    = EARTH
REF_FRAME      = TEME
TIME_SYSTEM    = UTC
MEAN_ELEMENT_THEORY = SGP/SGP4

EPOCH          = 2025-12-29T10:46:15.388608
MEAN_MOTION    = 15.39701750
ECCENTRICITY   = .00016216
INCLINATION    = 53.1605
RA_OF_ASC_NODE = 108.2492
ARG_OF_PERICENTER = 67.3817
MEAN_ANOMALY   = 292.7359

EPHEMERIS_TYPE = 0
CLASSIFICATION_TYPE = U
NORAD_CAT_ID   = 66623
ELEMENT_SET_NO = 999
REV_AT_EPOCH   = 678
BSTAR          = .22869499E-2
MEAN_MOTION_DOT = .92442E-3
MEAN_MOTION_DDOT = 0

CCSDS_OMM_VERS = 2.0
CREATION_DATE  = 
ORIGINATOR     = 

OBJECT_NAME    = STARLINK-35927
OBJECT_ID      = 2025-271H
CENTER_NAME    = EARTH
REF_FRAME      = TEME
TIME_SYSTEM    = UTC
MEAN_ELEMENT_THEORY = SGP/SGP4

EPOCH          = 2025-12-29T17:40:08.673600
MEAN_MOTION    = 15.39620821
ECCENTRICITY   = .000127
INCLINATION    = 53.1594
RA_OF_ASC_NODE = 106.4857
ARG_OF_PERICENTER = 124.7744
MEAN_ANOMALY   = 235.3380

EPHEMERIS_TYPE = 0
CLASSIFICATION_TYPE = U
NORAD_CAT_ID   = 66624
ELEMENT_SET_NO = 999
REV_AT_EPOCH   = 683
BSTAR          = .14236E-2
MEAN_MOTION_DOT = .56971E-3
MEAN_MOTION_DDOT = 0

CCSDS_OMM_VERS = 2.0
CREATION_DATE  = 
ORIGINATOR     = 

OBJECT_NAME    = STARLINK-35929
OBJECT_ID      = 2025-271J
CENTER_NAME    = EARTH
REF_FRAME      = TEME
TIME_SYSTEM    = UTC
MEAN_ELEMENT_THEORY = SGP/SGP4

EPOCH          = 2025-12-29T13:26:28.218048
MEAN_MOTION    = 15.39705106
ECCENTRICITY   = .0000968
INCLINATION    = 53.1607
RA_OF_ASC_NODE = 107.5194
ARG_OF_PERICENTER = 17.9717
MEAN_ANOMALY   = 342.1322

EPHEMERIS_TYPE = 0
CLASSIFICATION_TYPE = U
NORAD_CAT_ID   = 66625
ELEMENT_SET_NO = 999
REV_AT_EPOCH   = 680
BSTAR          = .25287E-2
MEAN_MOTION_DOT = .102402E-2
MEAN_MOTION_DDOT = 0

